NORAD_CAT_ID,OBJECT_NAME,OBJECT_TYPE,EPOCH,MEAN_MOTION,ECCENTRICITY,INCLINATION,RA_OF_ASC_NODE,ARG_OF_PERICENTER,MEAN_ANOMALY,BSTAR,MEAN_MOTION_DOT,MEAN_MOTION_DDOT,TLE_LINE0,TLE_LINE1,TLE_LINE2,SEMIMAJOR_AXIS,PERIOD,APOGEE,PERIGEE,DECAYED
49144.0,STARLINK-3100,PAYLOAD,2024-06-29 00:52:58,14.98342785,0.000308,70.0002,54.2905,266.0507,94.0299,0.00019323,2.214e-05,0.0,0 STARLINK-3100,1 49144U 21082Q   24181.03678337  .00002214  00000-0  19323-3 0  9998,2 49144  70.0002  54.2905 0003080 266.0507  94.0299 14.98342785153312,6950.153,96.106,574.159,569.878,0.0
49144.0,STARLINK-3100,PAYLOAD,2024-06-29 20:06:37,14.98316864,0.000322,69.9997,52.2702,266.8557,93.2234,-6.0312e-05,-8.12e-06,0.0,0 STARLINK-3100,1 49144U 21082Q   24181.83792854 -.00000812  00000-0 -60312-4 0  9996,2 49144  69.9997  52.2702 0003220 266.8557  93.2234 14.98316864153436,6950.234,96.108,574.336,569.861,0.0
49144.0,STARLINK-3100,PAYLOAD,2024-06-29 21:42:45,14.98319215,0.0003264,69.9995,52.1011,266.3069,93.7717,-9.301e-05,-1.202e-05,0.0,0 STARLINK-3100,1 49144U 21082Q   24181.90468804 -.00001202  00000-0 -93010-4 0  9994,2 49144  69.9995  52.1011 0003264 266.3069  93.7717 14.98319215153442,6950.226,96.108,574.36,569.823,0.0
49144.0,STARLINK-3100,PAYLOAD,2024-06-30 08:55:41,14.98325453,0.0003389,69.9987,50.9208,267.2495,92.8276,-6.2164e-05,-8.35e-06,0.0,0 STARLINK-3100,1 49144U 21082Q   24182.37200531 -.00000835  00000-0 -62164-4 0  9994,2 49144  69.9987  50.9208 0003389 267.2495  92.8276 14.98325453153517,6950.207,96.107,574.427,569.717,0.0
49144.0,STARLINK-3100,PAYLOAD,2024-06-30 21:44:45,14.98338598,0.0003429,69.9986,49.5766,268.3349,91.7417,-3.8267e-05,-5.5e-06,0.0,0 STARLINK-3100,1 49144U 21082Q   24182.90607785 -.00000550  00000-0 -38267-4 0  9996,2 49144  69.9986  49.5766 0003429 268.3349  91.7417 14.98338598153591,6950.166,96.106,574.415,569.648,0.0
49144.0,STARLINK-3100,PAYLOAD,2024-07-01 08:57:41,14.98342775,0.000312,69.9993,48.397,267.4544,92.6258,-6.9498e-05,-9.22e-06,0.0,0 STARLINK-3100,1 49144U 21082Q   24183.37339392 -.00000922  00000-0 -69498-4 0  9997,2 49144  69.9993  48.3970 0003120 267.4544  92.6258 14.98342775153661,6950.153,96.106,574.187,569.85,0.0
49144.0,STARLINK-3100,PAYLOAD,2024-07-01 21:46:46,14.98330768,0.0002968,69.9994,47.0508,268.9882,91.0937,0.00033035,3.851e-05,0.0,0 STARLINK-3100,1 49144U 21082Q   24183.90747800  .00003851  00000-0  33035-3 0  9992,2 49144  69.9994  47.0508 0002968 268.9882  91.0937 14.98330768153740,6950.191,96.107,574.118,569.993,0.0
49144.0,STARLINK-3100,PAYLOAD,2024-07-02 13:48:06,14.98335625,0.0002891,70.0012,45.3675,269.7745,90.3083,7.1059e-05,7.55e-06,0.0,0 STARLINK-3100,1 49144U 21082Q   24184.57507830  .00000755  00000-0  71059-4 0  9992,2 49144  70.0012  45.3675 0002891 269.7745  90.3083 14.98335625153844,6950.175,96.107,574.05,570.031,0.0
49144.0,STARLINK-3100,PAYLOAD,2024-07-02 21:48:46,14.9833777,0.0002925,69.9997,44.5257,269.5093,90.5731,7.7634e-05,8.34e-06,0.0,0 STARLINK-3100,1 49144U 21082Q   24184.90887721  .00000834  00000-0  77634-4 0  9992,2 49144  69.9997  44.5257 0002925 269.5093  90.5731 14.98337770153892,6950.169,96.107,574.067,570.001,0.0
49144.0,STARLINK-3100,PAYLOAD,2024-07-03 01:01:02,14.9834038,0.0002919,69.9997,44.189,269.6452,90.4373,9.7459e-05,1.07e-05,0.0,0 STARLINK-3100,1 49144U 21082Q   24185.04239404  .00001070  00000-0  97459-4 0  9997,2 49144  69.9997  44.1890 0002919 269.6452  90.4373 14.98340380153919,6950.161,96.106,574.055,569.997,0.0
49144.0,STARLINK-3100,PAYLOAD,2024-07-03 20:14:40,14.98331516,0.0002804,69.9999,42.169,272.2861,87.7977,-4.1527e-06,-1.43e-06,0.0,0 STARLINK-3100,1 49144U 21082Q   24185.84351891 -.00000143  00000-0 -41527-5 0  9998,2 49144  69.9999  42.1690 0002804 272.2861  87.7977 14.98331516154038,6950.188,96.107,574.002,570.104,0.0
49144.0,STARLINK-3100,PAYLOAD,2024-07-03 21:50:48,14.98332347,0.0002798,69.9999,42.0007,272.1636,87.9203,-9.5878e-07,-1.04e-06,0.0,0 STARLINK-3100,1 49144U 21082Q   24185.91027807 -.00000104  00000-0 -95878-6 0  9999,2 49144  69.9999  42.0007 0002798 272.1636  87.9203 14.98332347154048,6950.186,96.107,573.995,570.106,0.0
49144.0,STARLINK-3100,PAYLOAD,2024-07-04 07:27:35,14.98347285,0.000289,70.0,40.9905,273.9877,86.0952,-0.0002703,-3.318e-05,0.0,0 STARLINK-3100,1 49144U 21082Q   24186.31083171 -.00003318  00000-0 -27030-3 0  9992,2 49144  70.0000  40.9905 0002890 273.9877  86.0952 14.98347285154102,6950.139,96.106,574.013,569.996,0.0
49144.0,STARLINK-3100,PAYLOAD,2024-07-04 20:16:40,14.9833209,0.0002795,69.9999,39.6445,266.5107,93.5732,3.3812e-05,3.11e-06,0.0,0 STARLINK-3100,1 49144U 21082Q   24186.84491522  .00000311  00000-0  33812-4 0  9997,2 49144  69.9999  39.6445 0002795 266.5107  93.5732 14.98332090154183,6950.186,96.107,573.994,570.109,0.0
49144.0,STARLINK-3100,PAYLOAD,2024-07-04 21:52:48,14.98331835,0.0002803,69.9999,39.4762,266.3837,93.7002,2.982e-05,2.63e-06,0.0,0 STARLINK-3100,1 49144U 21082Q   24186.91167537  .00000263  00000-0  29820-4 0  9991,2 49144  69.9999  39.4762 0002803 266.3837  93.7002 14.98331835154190,6950.187,96.107,574.0,570.104,0.0
49144.0,STARLINK-3100,PAYLOAD,2024-07-05 07:29:37,14.98334581,0.0002984,69.9998,38.4663,261.8579,98.2242,-6.7156e-05,-8.94e-06,0.0,0 STARLINK-3100,1 49144U 21082Q   24187.31223423 -.00000894  00000-0 -67156-4 0  9999,2 49144  69.9998  38.4663 0002984 261.8579  98.2242 14.98334581154255,6950.179,96.107,574.118,569.97,0.0
49144.0,STARLINK-3100,PAYLOAD,2024-07-05 20:18:41,14.98330261,0.0002925,69.9998,37.1195,269.2158,90.8666,4.434e-05,4.36e-06,0.0,0 STARLINK-3100,1 49144U 21082Q   24187.84631573  .00000436  00000-0  44340-4 0  9996,2 49144  69.9998  37.1195 0002925 269.2158  90.8666 14.98330261154339,6950.192,96.107,574.09,570.024,0.0
49144.0,STARLINK-3100,PAYLOAD,2024-07-05 21:54:49,14.98330954,0.0002917,69.9998,36.9512,269.2393,90.8432,5.1331e-05,5.2e-06,0.0,0 STARLINK-3100,1 49144U 21082Q   24187.91307508  .00000520  00000-0  51331-4 0  9994,2 49144  69.9998  36.9512 0002917 269.2393  90.8432 14.98330954154342,6950.19,96.107,574.082,570.028,0.0
49144.0,STARLINK-3100,PAYLOAD,2024-07-06 13:56:10,14.98328775,0.0002919,69.9999,35.2679,269.2556,90.8269,3.8697e-05,3.69e-06,0.0,0 STARLINK-3100,1 49144U 21082Q   24188.58067595  .00000369  00000-0  38697-4 0  9998,2 49144  69.9999  35.2679 0002919 269.2556  90.8269 14.98328775154449,6950.197,96.107,574.09,570.033,0.0
49144.0,STARLINK-3100,PAYLOAD,2024-07-06 20:20:42,14.98330268,0.0002963,69.9999,34.595,270.1754,89.9066,1.9345e-05,1.38e-06,0.0,0 STARLINK-3100,1 49144U 21082Q   24188.84771580  .00000138  00000-0  19345-4 0  9996,2 49144  69.9999  34.5950 0002963 270.1754  89.9066 14.98330268154481,6950.192,96.107,574.116,569.998,0.0
49144.0,STARLINK-3100,PAYLOAD,2024-07-06 21:56:50,14.98329363,0.0002988,69.9999,34.4265,270.0441,90.0376,6.7154e-06,-1.3e-07,0.0,0 STARLINK-3100,1 49144U 21082Q   24188.91447664 -.00000013  00000-0  67154-5 0  9992,2 49144  69.9999  34.4265 0002988 270.0441  90.0376 14.98329363154490,6950.195,96.107,574.137,569.983,0.0
49144.0,STARLINK-3100,PAYLOAD,2024-07-07 13:58:11,14.98331269,0.0002996,70.0,32.7426,270.3521,89.7295,6.2707e-05,6.55e-06,0.0,0 STARLINK-3100,1 49144U 21082Q   24189.58207384  .00000655  00000-0  62707-4 0  9998,2 49144  70.0000  32.7426 0002996 270.3521  89.7295 14.98331269154591,6950.189,96.107,574.136,569.972,0.0
49144.0,STARLINK-3100,PAYLOAD,2024-07-07 20:22:43,14.9833301,0.0003024,70.0001,32.0696,270.2499,89.8313,5.0596e-05,5.11e-06,0.0,0 STARLINK-3100,1 49144U 21082Q   24189.84911309  .00000511  00000-0  50596-4 0  9990,2 49144  70.0001  32.0696 0003024 270.2499  89.8313 14.98333010154633,6950.184,96.107,574.15,569.947,0.0
49144.0,STARLINK-3100,PAYLOAD,2024-07-08 14:00:12,14.98330512,0.0003023,70.0001,30.2181,270.4042,89.677,5.6588e-05,5.82e-06,0.0,0 STARLINK-3100,1 49144U 21082Q   24190.58347329  .00000582  00000-0  56588-4 0  9993,2 49144  70.0001  30.2181 0003023 270.4042  89.6770 14.98330512154748,6950.191,96.107,574.157,569.955,0.0
49144.0,STARLINK-3100,PAYLOAD,2024-07-08 20:24:38,14.98402827,0.0002725,70.0001,29.5448,266.8243,93.2604,0.00083313,9.88e-05,0.0,0 STARLINK-3100,1 49144U 21082Q   24190.85044449  .00009880  00000-0  83313-3 0  9995,2 49144  70.0001  29.5448 0002725 266.8243  93.2604 14.98402827154785,6949.968,96.102,573.727,569.939,0.0
49144.0,STARLINK-3100,PAYLOAD,2024-07-08 22:00:45,14.98406622,0.0002745,70.0001,29.3761,267.2784,92.8061,0.00086321,0.00010242,0.0,0 STARLINK-3100,1 49144U 21082Q   24190.91719869  .00010242  00000-0  86321-3 0  9993,2 49144  70.0001  29.3761 0002745 267.2784  92.8061 14.98406622154798,6949.956,96.102,573.729,569.913,0.0
49144.0,STARLINK-3100,PAYLOAD,2024-07-09 12:26:04,14.98325699,0.0003085,70.0003,27.8616,272.0124,88.0681,-0.00011159,-1.424e-05,0.0,0 STARLINK-3100,1 49144U 21082Q   24191.51810391 -.00001424  00000-0 -11159-3 0  9993,2 49144  70.0003  27.8616 0003085 272.0124  88.0681 14.98325699154881,6950.206,96.107,574.215,569.927,0.0
49144.0,STARLINK-3100,PAYLOAD,2024-07-09 14:02:12,14.98327471,0.000305,70.0,27.6934,266.3076,93.7735,-0.00010691,-1.368e-05,0.0,0 STARLINK-3100,1 49144U 21082Q   24191.58486213 -.00001368  00000-0 -10691-3 0  9999,2 49144  70.0000  27.6934 0003050 266.3076  93.7735 14.98327471154897,6950.201,96.107,574.186,569.946,0.0
49144.0,STARLINK-3100,PAYLOAD,2024-07-09 22:02:52,14.98322466,0.0003205,69.9999,26.8517,270.6623,89.4169,-0.00016089,-2.012e-05,0.0,0 STARLINK-3100,1 49144U 21082Q   24191.91866687 -.00002012  00000-0 -16089-3 0  9997,2 49144  69.9999  26.8517 0003205 270.6623  89.4169 14.98322466154945,6950.216,96.107,574.309,569.854,0.0
49144.0,STARLINK-3100,PAYLOAD,2024-07-10 06:03:33,14.98321197,0.0003293,69.9996,26.0095,269.82,90.2581,-0.00016099,-2.013e-05,0.0,0 STARLINK-3100,1 49144U 21082Q   24192.25246792 -.00002013  00000-0 -16099-3 0  9996,2 49144  69.9996  26.0095 0003293 269.8200  90.2581 14.98321197154996,6950.22,96.108,574.374,569.796,0.0
